BEIDOU 3 (C01)          
1 36287U 10001A   22365.59285563 -.00000274  00000+0  00000+0 0  9991
2 36287   1.8608  51.3643 0002034 259.1048 143.3594  1.00269127 47492
BEIDOU 5 (C06)          
1 36828U 10036A   22365.22322542 -.00000043  00000+0  00000+0 0  9993
2 36828  54.2014 174.4300 0034622 182.2619 289.1916  1.00294664 45557
BEIDOU 6 (C04)          
1 37210U 10057A   22365.58950999 -.00000105  00000+0  00000+0 0  9993
2 37210   0.9011  50.5741 0006159 171.6812 249.8997  1.00272769 44612
BEIDOU 7 (C07)          
1 37256U 10068A   22363.70186751 -.00000204  00000+0  00000+0 0  9994
2 37256  49.8655 287.3080 0020747 206.3271 320.3295  1.00245673 44102
BEIDOU 8 (C08)          
1 37384U 11013A   22364.05821964 -.00000196  00000+0  00000+0 0  9998
2 37384  60.5737  52.3297 0023828 187.1152 345.6322  1.00256507 42985
BEIDOU 9 (C09)          
1 37763U 11038A   22365.22546286  .00000051  00000+0  00000+0 0  9996
2 37763  54.4784 176.9347 0101685 227.2563 231.4865  1.00282571 41971
BEIDOU 10 (C10)         
1 37948U 11073A   22365.21336796 -.00000175  00000+0  00000+0 0  9990
2 37948  49.9841 286.9431 0085888 221.0779 123.0891  1.00289445 40726
BEIDOU 11 (C05)         
1 38091U 12008A   22364.87493253  .00000061  00000+0  00000+0 0  9995
2 38091   2.0140  71.2389 0010094 312.0455  89.7386  1.00275421 39807
BEIDOU 12 (C11)         
1 38250U 12018A   22365.20848993 -.00000093  00000+0  00000+0 0  9992
2 38250  56.6274 347.0557 0025053 258.6257 107.6889  1.86234402 72751
BEIDOU 13 (C12)         
1 38251U 12018B   22364.31730869 -.00000089  00000+0  00000+0 0  9991
2 38251  56.5426 346.3970 0015908 261.4288 271.4923  1.86234240 72732
BEIDOU 15 (C14)         
1 38775U 12050B   22363.72044929 -.00000018  00000+0  00000+0 0  9999
2 38775  55.5218 105.1168 0011284 327.6140   0.5967  1.86231295 70099
BEIDOU 16 (C02)         
1 38953U 12059A   22365.16684028 -.00000169  00000+0  00000+0 0  9993
2 38953   1.4134  82.2537 0009229 290.1225 231.2949  1.00269594 37379
BEIDOU 17 (C31)         
1 40549U 15019A   22364.60104600 -.00000178  00000+0  00000+0 0  9997
2 40549  51.5465 310.4721 0035937 200.5905 256.5310  1.00254337 28407
BEIDOU 18 (C57)         
1 40748U 15037A   22364.18591021 -.00000090  00000+0  00000+0 0  9991
2 40748  55.7901 345.1481 0003621 332.8973  21.1217  1.86233363 50559
BEIDOU 19 (C58)         
1 40749U 15037B   22365.20240272 -.00000095  00000+0  00000+0 0  9990
2 40749  55.7932 345.1044 0006672 309.3849 140.2011  1.86232897 50577
BEIDOU 20 (C18)         
1 40938U 15053A   22365.20728117 -.00000143  00000+0  00000+0 0  9991
2 40938  51.1934 273.6077 0043326 194.6222 159.5804  1.00293391 26676
BEIDOU IGSO-6 (C13)     
1 41434U 16021A   22364.59545951 -.00000175  00000+0  00000+0 0  9998
2 41434  58.3861  50.8135 0049407 222.2442 135.5074  1.00287617 24792
BEIDOU-2 G7 (C03)       
1 41586U 16037A   22365.24380696 -.00000348  00000+0  00000+0 0  9991
2 41586   1.8202  70.0698 0007605 345.9963 241.8810  1.00268937 24103
BEIDOU-3 M1 (C19)       
1 43001U 17069A   22364.72100484 -.00000031  00000+0  00000+0 0  9997
2 43001  55.6748 105.1091 0008212 285.2360 150.2232  1.86231533 35051
BEIDOU-3 M2 (C20)       
1 43002U 17069B   22364.54632808 -.00000029  00000+0  00000+0 0  9995
2 43002  55.6750 105.1514 0006123 312.1222  49.0000  1.86231296 35044
BEIDOU-3 M3 (C27)       
1 43107U 18003A   22364.03486699 -.00000091  00000+0  00000+0 0  9998
2 43107  55.2441 345.9829 0003524  42.8643 141.7950  1.86232040 33794
BEIDOU-3 M4 (C28)       
1 43108U 18003B   22364.23174595 -.00000092  00000+0  00000+0 0  9991
2 43108  55.2377 345.9648 0004457 263.6778  95.7690  1.86230561 33795
BEIDOU-3 M5 (C21)       
1 43207U 18018A   22364.67340707 -.00000031  00000+0  00000+0 0  9998
2 43207  55.6334 105.2186 0003301 348.6003   9.4766  1.86231453 33188
BEIDOU-3 M6 (C22)       
1 43208U 18018B   22364.20594485 -.00000024  00000+0  00000+0 0  9994
2 43208  55.6326 105.2389 0006161 296.6808  63.2481  1.86231623 33188
BEIDOU-3 M7 (C29)       
1 43245U 18029A   22364.71022602 -.00000094  00000+0  00000+0 0  9997
2 43245  55.1482 343.7149 0001901 279.7277 268.3276  1.86232650 32347
BEIDOU-3 M8 (C30)       
1 43246U 18029B   22365.16785719 -.00000096  00000+0  10000-3 0  9990
2 43246  55.1440 343.7290 0004580 339.1683 202.4018  1.86232851 32343
BEIDOU IGSO-7 (C16)     
1 43539U 18057A   22364.88582816 -.00000050  00000+0  00000+0 0  9992
2 43539  55.0939 173.9923 0051596 224.9850 130.5132  1.00250187 16474
BEIDOU-3 M9 (C23)       
1 43581U 18062A   22363.86276990  .00000046  00000+0  00000+0 0  9999
2 43581  54.2249 225.4004 0002544 326.1631 271.9446  1.86232004 30061
BEIDOU-3 M10 (C24)      
1 43582U 18062B   22365.23950564  .00000061  00000+0  00000+0 0  9996
2 43582  54.2242 225.3426 0006938  23.8911 149.2133  1.86231599 30096
BEIDOU-3 M11 (C25)      
1 43602U 18067A   22365.20904781  .00000064  00000+0  00000+0 0  9994
2 43602  54.3086 223.9765 0007986  20.3323 173.3274  1.86231584 29589
BEIDOU-3 M12 (C26)      
1 43603U 18067B   22365.21013944  .00000064  00000+0  00000+0 0  9998
2 43603  54.3060 223.9427 0004929  13.9850  90.7479  1.86231540 29608
BEIDOU-3 M13 (C32)      
1 43622U 18072A   22364.47264403 -.00000029  00000+0  00000+0 0  9992
2 43622  55.6018 104.7736 0005503 275.3984  83.5630  1.86231394 29095
BEIDOU-3 M14 (C33)      
1 43623U 18072B   22364.87406088 -.00000034  00000+0  00000+0 0  9990
2 43623  55.6030 104.7524 0002799 305.0613  53.2709  1.86231387 29104
BEIDOU-3 M15 (C34)      
1 43647U 18078A   22364.23785196 -.00000092  00000+0  10000-3 0  9991
2 43647  55.0454 343.8718 0007374 358.5666 188.5846  1.86213796 28602
BEIDOU-3 M16 (C35)      
1 43648U 18078B   22364.37514519 -.00000093  00000+0  00000+0 0  9992
2 43648  55.0399 343.8746 0004137 354.5350 192.5979  1.86232236 28626
BEIDOU-3 G1 (C59)       
1 43683U 18085A   22364.81940845 -.00000272  00000+0  00000+0 0  9992
2 43683   1.0409 147.6820 0003903 186.7339 199.8200  1.00267511 15378
BEIDOU-3 M17 (C36)      
1 43706U 18093A   22364.24610420  .00000050  00000+0  00000+0 0  9990
2 43706  54.3066 225.2859 0007177 290.3313  69.6629  1.86231901 27965
BEIDOU-3 M18 (C37)      
1 43707U 18093B   22364.49679986  .00000053  00000+0  00000+0 0  9993
2 43707  54.3071 225.2688 0007222 323.2387 296.2509  1.86232314 27975
BEIDOU-3 IGSO-1 (C38)   
1 44204U 19023A   22364.04563025 -.00000232  00000+0  00000+0 0  9997
2 44204  56.8438  50.8830 0023940 196.8282 343.0630  1.00250746 13679
BEIDOU-2 G8             
1 44231U 19027A   22365.59285563 -.00000240  00000+0  00000+0 0  9999
2 44231   1.3429  80.5916 0006326 136.4771 240.8341  1.00274902 13405
BEIDOU-3 IGSO-2 (C39)   
1 44337U 19035A   22364.38403206 -.00000063  00000+0  00000+0 0  9990
2 44337  55.1113 169.9852 0029622 192.2722 351.0353  1.00297663 13014
BEIDOU-3 M23 (C45)      
1 44542U 19061A   22364.18266122  .00000049  00000+0  00000+0 0  9992
2 44542  54.5336 225.4690 0008851   0.2115 359.8604  1.86231479 22231
BEIDOU-3 M24 (C46)      
1 44543U 19061B   22364.13805926  .00000049  00000+0  00000+0 0  9999
2 44543  54.5313 225.4409 0005858 354.2846 247.4339  1.86231908 22225
BEIDOU-3 IGSO-3         
1 44709U 19073A   22363.72005387 -.00000209  00000+0  10000-3 0  9997
2 44709  56.9485 294.3529 0025478 182.0824 357.1108  1.00249637 11759
BEIDOU-3 M21            
1 44793U 19078A   22365.37804176 -.00000098  00000+0  10000-3 0  9997
2 44793  54.8925 343.8324 0006296 358.7373 186.9706  1.86232216 21111
BEIDOU-3 M22            
1 44794U 19078B   22365.24773100 -.00000098  00000+0  00000+0 0  9991
2 44794  54.8658 343.8241 0004506 347.3992  22.9473  1.86232666 21115
BEIDOU-3 M19            
1 44864U 19090A   22365.50642608 -.00000043  00000+0  00000+0 0  9990
2 44864  55.5370 104.9393 0016442 267.4932 110.5504  1.86231758 20708
BEIDOU-3 M20            
1 44865U 19090B   22365.34247771 -.00000041  00000+0  00000+0 0  9993
2 44865  55.5385 104.9766 0013956 281.5895  76.3734  1.86231747 20668
BEIDOU-3 G2             
1 45344U 20017A   22365.16605580 -.00000136  00000+0  00000+0 0  9998
2 45344   1.9909   2.6320 0001371 233.1349   3.5898  1.00272855 10598
BEIDOU-3 G3             
1 45807U 20040A   22365.43868609 -.00000346  00000+0  00000+0 0  9994
2 45807   1.0113 312.0028 0008694 340.6476  75.6755  1.00269645  9417
